#aV2015  4 11  0  0  0.00000000     288 DD+AD WGS84 FIT  NGA
## 1839 518400.00000000   300.00000000 57123 0.0000000000000
+   31     1  2  3  4  5  6  7  8  9 10 11 12 13 14 15 16 17
+         18 19 20 21 22 23 24 25 27 28 29 30 31 32  0  0  0
+          0  0  0  0  0  0  0  0  0  0  0  0  0  0  0  0  0
+          0  0  0  0  0  0  0  0  0  0  0  0  0  0  0  0  0
+          0  0  0  0  0  0  0  0  0  0  0  0  0  0  0  0  0
++         2  2  2  2  2  2  2  2  2  2  2  2  2  2  2  2  2
++         2  2  2  2  2  2  2  2  2  2  2  2  2  2  0  0  0
++         0  0  0  0  0  0  0  0  0  0  0  0  0  0  0  0  0
++         0  0  0  0  0  0  0  0  0  0  0  0  0  0  0  0  0
++         0  0  0  0  0  0  0  0  0  0  0  0  0  0  0  0  0
%c cc cc ccc ccc cccc cccc cccc cccc ccccc ccccc ccccc ccccc
%c cc cc ccc ccc cccc cccc cccc cccc ccccc ccccc ccccc ccccc
%f  0.0000000  0.000000000  0.00000000000  0.000000000000000
%f  0.0000000  0.000000000  0.00000000000  0.000000000000000
%i    0    0    0    0      0      0      0      0         0
%i    0    0    0    0      0      0      0      0         0
/*      NGA, ST. LOUIS,MO.                                  
/*   EPHEMERIS COMPUTED FROM  1 DAYS OF DATA                
/*   EPOCHA SMOOTHER                                       
/* CCCCCCCCCCCCCCCCCCCCCCCCCCCCCCCCCCCCCCCCCCCCCCCCCCCCCCCCC
*  2015  4 11 19 20  0.00000000
P  1 -14583.147298 -13275.465163 -17925.084053     -6.903164                    
V  1  22640.223205   -300.465183 -18066.788108      0.004553                    
P  2  -8882.838988  14785.935393  20448.958112    559.161769                    
V  2 -25327.801629  -1683.941992 -10423.868859      0.023402                    
P  3 -13715.317407 -22577.340140   2544.413566    292.522387                    
V  3   1066.822772  -4183.388505 -31539.407978      0.139161                    
P  4  -4300.457023 -15726.378257 -21319.751090    -11.115610                    
V  4  26381.327492    349.649864  -5399.347947     -0.009854                    
P  5     85.972467  22259.000643  14307.135011   -255.110308                    
V  5 -10828.956086 -15046.314000  23566.017767      0.048058                    
P  6 -22848.433230   7066.933706  11543.586849    133.159985                    
V  6 -14541.863688  -3010.151087 -26951.419932      0.099291                    
P  7 -24723.165595  -6951.031472   7583.093893    454.579007                    
V  7   9512.345738  -1379.814045  29785.282395      0.027518                    
P  8  12634.958482 -11272.757423  20483.651720     19.412978                    
V  8  25086.079533   5463.024913 -13195.008774      0.003940                    
P  9 -14291.801546  -5834.965112  21604.573982   -134.855157                    
V  9  14455.968861 -23354.793384   3238.554634     -0.083293                    
P 10 -14715.635042   5036.977006  21166.929139   -170.543695                    
V 10 -12502.252181 -24866.822163  -2307.291913     -0.013527                    
P 11  -8698.686636 -14850.287805 -20773.327713   -570.704160                    
V 11  24224.459418  -8024.026074  -4385.666151     -0.027098                    
P 12  10953.895838  24331.618264   -383.013702    284.006311                    
V 12  -1700.401231    378.356240 -32227.866471      0.030859                    
P 13 -11654.017722  22722.940260  -7675.842306   -104.768923                    
V 13  -7609.993587   6065.093204  29972.655100     -0.034361                    
P 14  19848.251167 -12316.829868 -12259.430327     71.628812                    
V 14  -7739.700026  14185.293814 -26424.650097     -0.028356                    
P 15    915.453823  21441.641988 -15530.720623   -242.992856                    
V 15 -12203.779556  15785.487490  21512.968772     -0.022023                    
P 16   1065.815811 -21769.747867  14834.384783   -139.614531                    
V 16   9184.585617  16782.490118  24222.247980      0.035954                    
P 17 -19406.310733  11385.599334 -13653.918692   -165.841961                    
V 17   8532.711453 -15874.200789 -25035.853636     -0.019237                    
P 18  18724.215577   8481.485887 -16493.195246    393.182903                    
V 18   8324.384216  20359.823624  19045.058141      0.028625                    
P 19   4539.324451 -21790.990891 -14311.804000   -507.012045                    
V 19  12832.493887 -12858.192263  24406.223455     -0.011987                    
P 20  -8117.560587  15371.994843  19908.584688    309.250015                    
V 20 -14642.337369 -21267.609081  10452.328428      0.038850                    
P 21  26001.353598   4555.140800   5084.876509   -435.593854                    
V 21  -5650.298511   3007.207023  30028.539373     -0.037526                    
P 22  15466.341620  -4600.231467 -20884.016128    338.603861                    
V 22  12549.679715  24116.140915   3762.830566      0.041004                    
P 23  -7285.797239 -15535.008803  20302.330906   -101.234734                    
V 23  14999.400656 -20819.774867 -11051.193039     -0.025146                    
P 24  11634.104114  14095.378690 -19357.910423    -46.469772                    
V 24 -24508.023903    545.394383 -14213.927517     -0.006915                    
P 25  17221.712862  16960.608099  11108.127351    -18.854453                    
V 25   4872.884810  13423.303757 -27657.385876     -0.034330                    
P 27  11684.921811 -23462.697590  -3925.450220     64.293708                    
V 27   4934.129745  -2769.117460  31436.544578      0.026650                    
P 28 -15650.752196  -1730.041217 -20790.318736    432.290668                    
V 28 -10432.815062 -25724.307559   9625.292768      0.026693                    
P 29  11676.707183   9393.310594  21959.206194    603.727844                    
V 29 -16234.519242  22534.469731   -959.104717      0.022763                    
P 30 -26365.865959   -792.490872  -3377.517936    -72.308918                    
V 30  -3893.034523  -3374.250134  31231.465847      0.037863                    
P 31  21080.273620  -8117.056528  14374.163325    318.853482                    
V 31  17689.930937   2910.356809 -24190.011237     -0.009517                    
P 32  -2409.415228 -24712.841622 -10165.122825   -178.528240                    
V 32   7165.439301  10806.788912 -27466.672603      0.094703                    
EOF
